GLOBALSTAR M084         
1 38040U 11080A   25248.22694112 -.00000094  00000+0  56404-4 0  9999
2 38040  52.0001 164.8047 0000351  94.6543  63.2628 12.62268646632770
GLOBALSTAR M080         
1 38041U 11080B   25248.10801848 -.00000110  00000+0 -35051-4 0  9998
2 38041  52.0054 166.7869 0000805  27.4056  79.0970 12.62268700632887
GLOBALSTAR M082         
1 38042U 11080C   25248.13661226 -.00000079  00000+0  13767-3 0  9998
2 38042  52.0067 122.1692 0000970  47.2512 120.1337 12.62268293633593
GLOBALSTAR M092         
1 38043U 11080D   25248.26234413 -.00000114  00000+0 -59156-4 0  9991
2 38043  52.0068 212.1673 0000330  63.2500  75.0281 12.62265630632068
GLOBALSTAR M090         
1 38044U 11080E   25248.15965463 -.00000075  00000+0  16293-3 0  9995
2 38044  52.0112 115.9621 0000897  69.4791  82.6272 12.62262181633715
GLOBALSTAR M086         
1 38045U 11080F   25248.10897917 -.00000086  00000+0  10098-3 0  9998
2 38045  51.9887 116.5097 0001467 114.5542  50.9281 12.62276588633654
GLOBALSTAR M097         
1 39072U 13005A   25247.70377805 -.00000107  00000+0 -16772-4 0  9993
2 39072  52.0064  32.3726 0000927  92.8444 267.2529 12.62265761580859
GLOBALSTAR M093         
1 39073U 13005B   25247.83608461 -.00000094  00000+0  51825-4 0  9995
2 39073  52.0124  25.2078 0001139  90.4818 269.6180 12.62264096580829
